CCSDS_OMM_VERS = 2.0
CREATION_DATE  = 
ORIGINATOR     = 

OBJECT_NAME    = STARLINK-36745
OBJECT_ID      = 2026-054AB
CENTER_NAME    = EARTH
REF_FRAME      = TEME
TIME_SYSTEM    = UTC
MEAN_ELEMENT_THEORY = SGP/SGP4

EPOCH          = 2026-03-30T22:00:00.999936
MEAN_MOTION    = 15.75187913
ECCENTRICITY   = .00014679
INCLINATION    = 53.1595
RA_OF_ASC_NODE = 206.0929
ARG_OF_PERICENTER = 54.7275
MEAN_ANOMALY   = 304.6524

EPHEMERIS_TYPE = 0
CLASSIFICATION_TYPE = U
NORAD_CAT_ID   = 68257
ELEMENT_SET_NO = 999
REV_AT_EPOCH   = 332
BSTAR          = .58534421E-3
MEAN_MOTION_DOT = .89844E-3
MEAN_MOTION_DDOT = 0

CCSDS_OMM_VERS = 2.0
CREATION_DATE  = 
ORIGINATOR     = 

OBJECT_NAME    = STARLINK-36890
OBJECT_ID      = 2026-054AC
CENTER_NAME    = EARTH
REF_FRAME      = TEME
TIME_SYSTEM    = UTC
MEAN_ELEMENT_THEORY = SGP/SGP4

EPOCH          = 2026-03-30T22:00:00.999936
MEAN_MOTION    = 15.80898865
ECCENTRICITY   = .00010619
INCLINATION    = 53.1589
RA_OF_ASC_NODE = 206.0562
ARG_OF_PERICENTER = 91.9655
MEAN_ANOMALY   = 285.4954

EPHEMERIS_TYPE = 0
CLASSIFICATION_TYPE = U
NORAD_CAT_ID   = 68258
ELEMENT_SET_NO = 999
REV_AT_EPOCH   = 332
BSTAR          = -.30906666E-3
MEAN_MOTION_DOT = -.61339E-3
MEAN_MOTION_DDOT = 0

CCSDS_OMM_VERS = 2.0
CREATION_DATE  = 
ORIGINATOR     = 

OBJECT_NAME    = STARLINK-36323
OBJECT_ID      = 2026-054AD
CENTER_NAME    = EARTH
REF_FRAME      = TEME
TIME_SYSTEM    = UTC
MEAN_ELEMENT_THEORY = SGP/SGP4

EPOCH          = 2026-03-30T22:00:00.999936
MEAN_MOTION    = 15.80888413
ECCENTRICITY   = .00008983
INCLINATION    = 53.1592
RA_OF_ASC_NODE = 206.0740
ARG_OF_PERICENTER = 68.7047
MEAN_ANOMALY   = 300.2118

EPHEMERIS_TYPE = 0
CLASSIFICATION_TYPE = U
NORAD_CAT_ID   = 68259
ELEMENT_SET_NO = 999
REV_AT_EPOCH   = 336
BSTAR          = -.17798012E-3
MEAN_MOTION_DOT = -.35705E-3
MEAN_MOTION_DDOT = 0

CCSDS_OMM_VERS = 2.0
CREATION_DATE  = 
ORIGINATOR     = 

OBJECT_NAME    = STARLINK-37056
OBJECT_ID      = 2026-054AE
CENTER_NAME    = EARTH
REF_FRAME      = TEME
TIME_SYSTEM    = UTC
MEAN_ELEMENT_THEORY = SGP/SGP4

EPOCH          = 2026-03-30T22:00:00.999936
MEAN_MOTION    = 15.80924873
ECCENTRICITY   = .00009389
INCLINATION    = 53.1588
RA_OF_ASC_NODE = 206.0470
ARG_OF_PERICENTER = 66.8012
MEAN_ANOMALY   = 314.9222

EPHEMERIS_TYPE = 0
CLASSIFICATION_TYPE = U
NORAD_CAT_ID   = 68260
ELEMENT_SET_NO = 999
REV_AT_EPOCH   = 332
BSTAR          = -.55579633E-3
MEAN_MOTION_DOT = -.109277E-2
MEAN_MOTION_DDOT = 0

CCSDS_OMM_VERS = 2.0
CREATION_DATE  = 
ORIGINATOR     = 

OBJECT_NAME    = TEN-KOH 2
OBJECT_ID      = 2025-241B
CENTER_NAME    = EARTH
REF_FRAME      = TEME
TIME_SYSTEM    = UTC
MEAN_ELEMENT_THEORY = SGP/SGP4

EPOCH          = 2026-03-30T21:14:04.897824
MEAN_MOTION    = 15.22795183
ECCENTRICITY   = .00044924
INCLINATION    = 51.6393
RA_OF_ASC_NODE = 332.0946
ARG_OF_PERICENTER = 233.7074
MEAN_ANOMALY   = 126.3489

EPHEMERIS_TYPE = 0
CLASSIFICATION_TYPE = U
NORAD_CAT_ID   = 68261
ELEMENT_SET_NO = 999
REV_AT_EPOCH   = 297
BSTAR          = .49214871E-3
MEAN_MOTION_DOT = .11349E-3
MEAN_MOTION_DDOT = 0

CCSDS_OMM_VERS = 2.0
CREATION_DATE  = 
ORIGINATOR     = 

OBJECT_NAME    = STARLINK-37162
OBJECT_ID      = 2026-055A
CENTER_NAME    = EARTH
REF_FRAME      = TEME
TIME_SYSTEM    = UTC
MEAN_ELEMENT_THEORY = SGP/SGP4

EPOCH          = 2026-03-30T22:00:00.999936
MEAN_MOTION    = 15.90576048
ECCENTRICITY   = .00010373
INCLINATION    = 53.1572
RA_OF_ASC_NODE = 231.0589
ARG_OF_PERICENTER = 49.0830
MEAN_ANOMALY   = 66.8136

EPHEMERIS_TYPE = 0
CLASSIFICATION_TYPE = U
NORAD_CAT_ID   = 68262
ELEMENT_SET_NO = 999
REV_AT_EPOCH   = 304
BSTAR          = -.35747783E-2
MEAN_MOTION_DOT = -.1011149E-1
MEAN_MOTION_DDOT = 0

CCSDS_OMM_VERS = 2.0
CREATION_DATE  = 
ORIGINATOR     = 

OBJECT_NAME    = STARLINK-37156
OBJECT_ID      = 2026-055B
CENTER_NAME    = EARTH
REF_FRAME      = TEME
TIME_SYSTEM    = UTC
MEAN_ELEMENT_THEORY = SGP/SGP4

EPOCH          = 2026-03-30T22:00:00.999936
MEAN_MOTION    = 15.90664619
ECCENTRICITY   = .00010319
INCLINATION    = 53.1571
RA_OF_ASC_NODE = 231.0529
ARG_OF_PERICENTER = 50.5017
MEAN_ANOMALY   = 68.5571

EPHEMERIS_TYPE = 0
CLASSIFICATION_TYPE = U
NORAD_CAT_ID   = 68263
ELEMENT_SET_NO = 999
REV_AT_EPOCH   = 304
BSTAR          = -.35533746E-2
MEAN_MOTION_DOT = -.1126793E-1
MEAN_MOTION_DDOT = .37512384E-3

CCSDS_OMM_VERS = 2.0
CREATION_DATE  = 
ORIGINATOR     = 

OBJECT_NAME    = STARLINK-37163
OBJECT_ID      = 2026-055C
CENTER_NAME    = EARTH
REF_FRAME      = TEME
TIME_SYSTEM    = UTC
MEAN_ELEMENT_THEORY = SGP/SGP4

EPOCH          = 2026-03-30T22:00:00.999936
MEAN_MOTION    = 15.90831519
ECCENTRICITY   = .00010899
INCLINATION    = 53.1569
RA_OF_ASC_NODE = 231.0361
ARG_OF_PERICENTER = 52.4535
MEAN_ANOMALY   = 74.2615

EPHEMERIS_TYPE = 0
CLASSIFICATION_TYPE = U
NORAD_CAT_ID   = 68264
ELEMENT_SET_NO = 999
REV_AT_EPOCH   = 304
BSTAR          = -.35617834E-2
MEAN_MOTION_DOT = -.1139026E-1
MEAN_MOTION_DDOT = .38316336E-3

CCSDS_OMM_VERS = 2.0
CREATION_DATE  = 
ORIGINATOR     = 

OBJECT_NAME    = STARLINK-37133
OBJECT_ID      = 2026-055D
CENTER_NAME    = EARTH
REF_FRAME      = TEME
TIME_SYSTEM    = UTC
MEAN_ELEMENT_THEORY = SGP/SGP4

EPOCH          = 2026-03-30T22:00:00.999936
MEAN_MOTION    = 15.90746917
ECCENTRICITY   = .00010749
INCLINATION    = 53.1570
RA_OF_ASC_NODE = 231.0445
ARG_OF_PERICENTER = 52.1371
MEAN_ANOMALY   = 70.8190

EPHEMERIS_TYPE = 0
CLASSIFICATION_TYPE = U
NORAD_CAT_ID   = 68265
ELEMENT_SET_NO = 999
REV_AT_EPOCH   = 304
BSTAR          = -.35569378E-2
MEAN_MOTION_DOT = -.1132625E-1
MEAN_MOTION_DDOT = .37895497E-3

CCSDS_OMM_VERS = 2.0
CREATION_DATE  = 
ORIGINATOR     = 

OBJECT_NAME    = STARLINK-37042
OBJECT_ID      = 2026-055E
CENTER_NAME    = EARTH
REF_FRAME      = TEME
TIME_SYSTEM    = UTC
MEAN_ELEMENT_THEORY = SGP/SGP4

EPOCH          = 2026-03-30T22:00:00.999936
MEAN_MOTION    = 15.90920563
ECCENTRICITY   = .00010948
INCLINATION    = 53.1569
RA_OF_ASC_NODE = 231.0270
ARG_OF_PERICENTER = 53.1931
MEAN_ANOMALY   = 78.1586

EPHEMERIS_TYPE = 0
CLASSIFICATION_TYPE = U
NORAD_CAT_ID   = 68266
ELEMENT_SET_NO = 999
REV_AT_EPOCH   = 304
BSTAR          = -.37155886E-2
MEAN_MOTION_DOT = -.1193055E-1
MEAN_MOTION_DDOT = .41718597E-3

CCSDS_OMM_VERS = 2.0
CREATION_DATE  = 
ORIGINATOR     = 

OBJECT_NAME    = STARLINK-37103
OBJECT_ID      = 2026-055F
CENTER_NAME    = EARTH
REF_FRAME      = TEME
TIME_SYSTEM    = UTC
MEAN_ELEMENT_THEORY = SGP/SGP4

EPOCH          = 2026-03-30T22:00:00.999936
MEAN_MOTION    = 15.91014044
ECCENTRICITY   = .00010648
INCLINATION    = 53.1571
RA_OF_ASC_NODE = 231.0183
ARG_OF_PERICENTER = 52.1836
MEAN_ANOMALY   = 83.2913

EPHEMERIS_TYPE = 0
CLASSIFICATION_TYPE = U
NORAD_CAT_ID   = 68267
ELEMENT_SET_NO = 999
REV_AT_EPOCH   = 304
BSTAR          = -.3895103E-2
MEAN_MOTION_DOT = -.1255989E-1
MEAN_MOTION_DDOT = .45849055E-3

CCSDS_OMM_VERS = 2.0
CREATION_DATE  = 
ORIGINATOR     = 

OBJECT_NAME    = STARLINK-36999
OBJECT_ID      = 2026-055G
CENTER_NAME    = EARTH
REF_FRAME      = TEME
TIME_SYSTEM    = UTC
MEAN_ELEMENT_THEORY = SGP/SGP4

EPOCH          = 2026-03-30T22:00:00.999936
MEAN_MOTION    = 15.91104956
ECCENTRICITY   = .00010507
INCLINATION    = 53.1569
RA_OF_ASC_NODE = 231.0105
ARG_OF_PERICENTER = 54.4511
MEAN_ANOMALY   = 84.8364

EPHEMERIS_TYPE = 0
CLASSIFICATION_TYPE = U
NORAD_CAT_ID   = 68268
ELEMENT_SET_NO = 999
REV_AT_EPOCH   = 304
BSTAR          = -.40309267E-2
MEAN_MOTION_DOT = -.1305291E-1
MEAN_MOTION_DDOT = .49221648E-3

