STARLINK-36745          
1 68257U 26054AB  26089.91667824  .00089844  00000+0  58534-3 0  9993
2 68257  53.1595 206.0929 0001467  54.7275 304.6524 15.75187913  3323
STARLINK-36890          
1 68258U 26054AC  26089.91667824 -.00061339  00000+0 -30907-3 0  9999
2 68258  53.1589 206.0562 0001061  91.9655 285.4954 15.80898865  3329
STARLINK-36323          
1 68259U 26054AD  26089.91667824 -.00035705  00000+0 -17798-3 0  9991
2 68259  53.1592 206.0740 0000898  68.7047 300.2118 15.80888413  3366
STARLINK-37056          
1 68260U 26054AE  26089.91667824 -.00109277  00000+0 -55580-3 0  9990
2 68260  53.1588 206.0470 0000938  66.8012 314.9222 15.80924873  3324
TEN-KOH 2               
1 68261U 25241B   26089.88477891  .00011349  00000+0  49215-3 0  9995
2 68261  51.6393 332.0946 0004492 233.7074 126.3489 15.22795183  2978
STARLINK-37162          
1 68262U 26055A   26089.91667824 -.01011149  00000+0 -35748-2 0  9997
2 68262  53.1572 231.0589 0001037  49.0830  66.8136 15.90576048  3044
STARLINK-37156          
1 68263U 26055B   26089.91667824 -.01126793  37512-3 -35534-2 0  9995
2 68263  53.1571 231.0529 0001031  50.5017  68.5571 15.90664619  3040
STARLINK-37163          
1 68264U 26055C   26089.91667824 -.01139026  38316-3 -35618-2 0  9995
2 68264  53.1569 231.0361 0001089  52.4535  74.2615 15.90831519  3049
STARLINK-37133          
1 68265U 26055D   26089.91667824 -.01132625  37895-3 -35569-2 0  9990
2 68265  53.1570 231.0445 0001074  52.1371  70.8190 15.90746917  3041
STARLINK-37042          
1 68266U 26055E   26089.91667824 -.01193055  41719-3 -37156-2 0  9999
2 68266  53.1569 231.0270 0001094  53.1931  78.1586 15.90920563  3042
STARLINK-37103          
1 68267U 26055F   26089.91667824 -.01255989  45849-3 -38951-2 0  9997
2 68267  53.1571 231.0183 0001064  52.1836  83.2913 15.91014044  3049
STARLINK-36999          
1 68268U 26055G   26089.91667824 -.01305291  49222-3 -40309-2 0  9999
2 68268  53.1569 231.0105 0001050  54.4511  84.8364 15.91104956  3040
